OPS 6582 (TRANSIT 5B-5) 
1 00965U 64083D   22046.88707856  .00000011  00000+0  22193-5 0  9997
2 00965  90.0254 195.0626 0039752 222.4055 249.7170 13.56769044829034
OSCAR 7 (AO-7)          
1 07530U 74089B   22046.88138787 -.00000045  00000+0  29241-5 0  9999
2 07530 101.8908  26.4329 0011968 275.4811 138.0144 12.53652944162239
UOSAT 2 (UO-11)         
1 14781U 84021B   22046.91182129  .00000531  00000+0  70687-4 0  9993
2 14781  97.6088  39.9654 0008634  11.7531 348.3884 14.83449552 22025
NOAA 9                  
1 15427U 84123A   22046.93119354  .00000034  00000+0  40123-4 0  9996
2 15427  99.0298  17.5089 0015303 146.7792 276.8591 14.16167866919414
LUSAT (LO-19)           
1 20442U 90005G   22046.89116867  .00000042  00000+0  31861-4 0  9994
2 20442  98.7776  10.0072 0012028 160.8466 199.3172 14.33023043675690
ITAMSAT (IO-26)         
1 22826U 93061D   22046.83332551  .00000053  00000+0  38155-4 0  9996
2 22826  98.8957  75.0998 0009562  38.6858 321.5007 14.30487322481023
RADIO ROSTO (RS-15)     
1 23439U 94085A   22046.89142658 -.00000037  00000+0  15882-3 0  9991
2 23439  64.8170 342.2343 0167202 293.3200  65.0205 11.27571355117786
JAS-2 (FO-29)           
1 24278U 96046B   22046.87018720 -.00000006  00000+0  32036-4 0  9999
2 24278  98.5336  87.1955 0349496 238.6313 118.0195 13.53110468259165
NOAA 15                 
1 25338U 98030A   22046.83162722  .00000082  00000+0  52559-4 0  9995
2 25338  98.6591  77.8717 0009383 294.1288  65.8910 14.26090380235681
TECHSAT 1B (GO-32)      
1 25397U 98043D   22046.84962843  .00000017  00000+0  27069-4 0  9993
2 25397  98.8031 357.0985 0002328  93.9219 266.2225 14.23732391226349
ISS (ZARYA)             
1 25544U 98067A   22047.03796387  .00008563  00000+0  15896-3 0  9991
2 25544  51.6422 216.5495 0005799 134.2991 326.6921 15.49794547326390
ORSTED                  
1 25635U 99008B   22046.69544937  .00000188  00000+0  52208-4 0  9995
2 25635  96.4790 299.9743 0137492 209.3177 150.0257 14.48386796212658
PHASE 3D (AO-40)        
1 26609U 00072B   22046.75705661 -.00000012  00000+0  00000+0 0  9995
2 26609   8.0374 291.1216 7978125 336.9868   1.9648  1.25589118 97623
PCSAT (NO-44)           
1 26931U 01043C   22046.60328887  .00000050  00000+0  50761-4 0  9992
2 26931  67.0527  12.8994 0007346 279.1907  80.8363 14.30662804 63975
SAUDISAT 1C (SO-50)     
1 27607U 02058C   22046.90740353  .00000464  00000+0  85383-4 0  9996
2 27607  64.5560 313.7798 0069548 318.8130  40.7736 14.75919882 30435
CUTE-1 (CO-55)          
1 27844U 03031E   22046.73373685  .00000169  00000+0  95327-4 0  9993
2 27844  98.6811  56.2476 0010968  94.4745 265.7686 14.22382280966561
CUBESAT XI-IV (CO-57)   
1 27848U 03031J   22046.72961320  .00000136  00000+0  81095-4 0  9996
2 27848  98.6860  56.7848 0010820 107.0252 253.2112 14.21948989966387
MOZHAYETS 4 (RS-22)     
1 27939U 03042A   22046.80514749  .00000681  00000+0  12990-3 0  9999
2 27939  98.1692 187.7174 0011995 227.7849 132.2342 14.67140491983202
INMARSAT 4-F1           
1 28628U 05009A   22046.85396517 -.00000258  00000+0  00000+0 0  9992
2 28628   3.5238  33.7621 0003084 297.5968 265.3796  1.00271944 61803
NOAA 18                 
1 28654U 05018A   22046.88289304  .00000125  00000+0  91503-4 0  9994
2 28654  98.9638 117.3518 0013468 317.5118  42.5010 14.12688435862813
CUBESAT XI-V            
1 28895U 05043F   22046.87928099  .00000602  00000+0  12353-3 0  9994
2 28895  98.0864 180.2965 0017218 160.2782 199.9090 14.64096227869624
METOP-A                 
1 29499U 06044A   22046.90732043  .00000766  00000+0  11045-3 0  9991
2 29499  98.4685  87.5692 0199377  29.2689 143.1109 14.66936956792859
CARTOSAT-2 (IRS-P7)     
1 29710U 07001B   22046.79346319  .00012378  00000+0  33665-3 0  9999
2 29710  97.8639 145.7300 0164447 122.4849 239.2404 15.25097770817675
FALCONSAT-3             
1 30776U 07006E   22046.90889326  .00016593  00000+0  33664-3 0  9993
2 30776  35.4344 331.3699 0003898 302.3397  57.6955 15.45492698830727
CAPE-1                  
1 31130U 07012P   22046.81976621  .00000677  00000+0  15298-3 0  9999
2 31130  98.2588 348.3396 0094659 310.7892  48.5121 14.56873899787383
CARTOSAT-2A             
1 32783U 08021A   22046.88356894  .00000693  00000+0  10165-3 0  9992
2 32783  97.9840 108.2398 0012367 194.5471 165.5364 14.78632936745053
CUTE-1.7+APD II (CO-65) 
1 32785U 08021C   22046.89052565  .00001294  00000+0  14282-3 0  9995
2 32785  97.6426  21.7454 0011287 278.0793  81.9144 14.89077468748391
COMPASS-1               
1 32787U 08021E   22046.92406908  .00001821  00000+0  17225-3 0  9991
2 32787  97.5519  33.2541 0011695 185.4263 174.6834 14.94800434749891
AAUSAT-II               
1 32788U 08021F   22046.90959968  .00002786  00000+0  25085-3 0  9993
2 32788  97.5238  36.7003 0011985 163.2414 196.9207 14.96342375750255
DELFI-C3 (DO-64)        
1 32789U 08021G   22046.86149327  .00005514  00000+0  33455-3 0  9991
2 32789  97.3534  77.7472 0011903  33.0389 327.1583 15.10862972753551
SEEDS II (CO-66)        
1 32791U 08021J   22046.87526819  .00001761  00000+0  17923-3 0  9992
2 32791  97.5984  27.3674 0011681 231.0920 128.9258 14.91917932749066
YUBILEINY (RS-30)       
1 32953U 08025A   22046.68887409  .00000021  00000+0  80971-4 0  9992
2 32953  82.5007 259.6475 0019358 164.3210 195.8476 12.43107138623200
FENGYUN 3A              
1 32958U 08026A   22046.87962006  .00000040  00000+0  39424-4 0  9994
2 32958  98.4859  14.5885 0009177  21.7716 338.3848 14.18688896710982
PRISM (HITOMI)          
1 33493U 09002B   22046.93547473  .00002546  00000+0  21772-3 0  9997
2 33493  98.2180  26.7679 0014691 196.9106 163.1627 14.98535721710775
STARS (KUKAI)           
1 33498U 09002G   22046.67358673  .00000925  00000+0  13060-3 0  9995
2 33498  98.1851 296.5353 0009580 287.0285  72.9876 14.79625268703423
KKS-1 (KISEKI)          
1 33499U 09002H   22046.88838735  .00000472  00000+0  76600-4 0  9998
2 33499  98.2366 286.8022 0008875 352.3841   7.7231 14.75816170702319
NOAA 19                 
1 33591U 09005A   22046.87056488  .00000095  00000+0  76487-4 0  9994
2 33591  99.1638  78.3634 0014181 166.0203 194.1363 14.12530253671022
SWISSCUBE               
1 35932U 09051B   22046.80353748  .00000439  00000+0  10921-3 0  9990
2 35932  98.5828 259.2462 0008587  64.5064 295.7021 14.56689729658380
BEESAT-1                
1 35933U 09051C   22046.82961218  .00000374  00000+0  94565-4 0  9995
2 35933  98.5774 260.9791 0006868  76.0851 284.1109 14.56728420658467
ITUPSAT1                
1 35935U 09051E   22046.56709005  .00000350  00000+0  90929-4 0  9996
2 35935  98.5876 260.7948 0009188  78.4046 281.8182 14.55850308658144
XIWANG-1 (HOPE-1)       
1 36122U 09072B   22046.89362630 -.00000031  00000+0  31367-4 0  9991
2 36122 100.1672  22.8010 0006835 260.7877  99.2464 13.16365848584810
CARTOSAT-2B             
1 36795U 10035A   22046.85415271  .00000378  00000+0  58655-4 0  9996
2 36795  97.9787 108.4362 0012341 278.3087  81.6720 14.78652015626095
TISAT 1                 
1 36799U 10035E   22046.50566782  .00002005  00000+0  20237-3 0  9999
2 36799  98.1931 252.1070 0012835 132.3189 227.9118 14.92238604629578
FENGYUN 3B              
1 37214U 10059A   22046.80652221  .00000047  00000+0  48832-4 0  9991
2 37214  99.0919  50.6188 0021846 341.1502  18.8845 14.14244198583762
JUGNU                   
1 37839U 11058B   22046.70748714  .00000377  00000+0  58492-4 0  9995
2 37839  19.9598 193.8894 0018847 254.6688 135.9337 14.12749513534901
SRMSAT                  
1 37841U 11058D   22046.89759332  .00000344  00000+0  43704-4 0  9990
2 37841  19.9715 269.6654 0011900  88.7025  26.0765 14.10725870534054
M-CUBED & EXP-1 PRIME   
1 37855U 11061F   22046.71356995  .00005325  00000+0  25049-3 0  9993
2 37855 101.7144 101.8645 0160948  66.3256 295.4756 15.09651233562858
HORYU-2                 
1 38340U 12025D   22046.69620530  .00000842  00000+0  12909-3 0  9990
2 38340  98.2059 123.2605 0010258 255.5938 104.4133 14.76290165514271
METOP-B                 
1 38771U 12049A   22046.93681920  .00000048  00000+0  41894-4 0  9995
2 38771  98.6823 108.5195 0001762  66.4118  53.7793 14.21496160488474
SARAL                   
1 39086U 13009A   22046.88605991  .00000030  00000+0  27370-4 0  9994
2 39086  98.5456 234.3166 0000211 152.7255 207.3939 14.32054132469086
AAUSAT 3                
1 39087U 13009B   22046.83522771  .00000361  00000+0  13892-3 0  9994
2 39087  98.4058 249.3961 0011717 271.1496  88.8334 14.36052889470128
STRAND-1                
1 39090U 13009E   22046.78850752  .00000058  00000+0  35129-4 0  9996
2 39090  98.4109 248.0379 0007966 274.6733  85.3543 14.35244109469940
BRITE-AUSTRIA           
1 39091U 13009F   22046.77163623  .00000098  00000+0  49230-4 0  9992
2 39091  98.4118 247.1767 0009366 282.2207  77.7929 14.35229400469972
UNIBRITE                
1 39092U 13009G   22046.78237539  .00000079  00000+0  42579-4 0  9990
2 39092  98.4150 246.9286 0008250 276.9133  83.1114 14.35101016469936
SOMP                    
1 39134U 13015E   22046.85108583  .00007281  00000+0  29516-3 0  9995
2 39134  64.8630  99.8454 0030388 299.7106  60.1000 15.24965606488296
BEESAT-3                
1 39135U 13015F   22046.60774650  .00006012  00000+0  27380-3 0  9991
2 39135  64.8679 134.0830 0031038 309.1036  50.7332 15.21202192487564
BEESAT-2                
1 39136U 13015G   22046.65111055  .00005740  00000+0  27051-3 0  9993
2 39136  64.8764 141.4198 0010486 272.5172  87.4755 15.20432714487387
NEE-01 PEGASO           
1 39151U 13018B   22046.54032435  .00000839  00000+0  11613-3 0  9996
2 39151  97.9840 152.7323 0015671 292.1301  67.8247 14.80589535475647
CUBEBUG-1 (CAPITAN BETO)
1 39153U 13018D   22046.86488670  .00000964  00000+0  13057-3 0  9992
2 39153  98.0028 157.0448 0015490 285.4443  74.5059 14.81219343475752
